[{"OBJECT_NAME":"STARLINK-3812","OBJECT_ID":"2022-045R","EPOCH":"2026-03-09T15:24:32.946336","MEAN_MOTION":15.08835897,"ECCENTRICITY":0.00013,"INCLINATION":53.2167,"RA_OF_ASC_NODE":199.3431,"ARG_OF_PERICENTER":114.3782,"MEAN_ANOMALY":245.7345,"EPHEMERIS_TYPE":0,"CLASSIFICATION_TYPE":"U","NORAD_CAT_ID":52346,"ELEMENT_SET_NO":999,"REV_AT_EPOCH":21577,"BSTAR":1.3789e-5,"MEAN_MOTION_DOT":-6.8e-7,"MEAN_MOTION_DDOT":0},{"OBJECT_NAME":"LANDSAT 5","OBJECT_ID":"1984-021A","EPOCH":"2026-03-09T17:06:39.595392","MEAN_MOTION":15.03956175,"ECCENTRICITY":0.00705197,"INCLINATION":98.0698,"RA_OF_ASC_NODE":343.5816,"ARG_OF_PERICENTER":90.3041,"MEAN_ANOMALY":270.6265,"EPHEMERIS_TYPE":0,"CLASSIFICATION_TYPE":"U","NORAD_CAT_ID":14780,"ELEMENT_SET_NO":999,"REV_AT_EPOCH":77643,"BSTAR":0.00029889959,"MEAN_MOTION_DOT":4.286e-5,"MEAN_MOTION_DDOT":0}]
